[{"OBJECT_NAME":"OBJECT D","OBJECT_ID":"2023-091D","EPOCH":"2026-03-09T22:26:22.181280","MEAN_MOTION":15.22514214,"ECCENTRICITY":0.00120544,"INCLINATION":97.5229,"RA_OF_ASC_NODE":130.3318,"ARG_OF_PERICENTER":91.7077,"MEAN_ANOMALY":268.554,"EPHEMERIS_TYPE":0,"CLASSIFICATION_TYPE":"U","NORAD_CAT_ID":57169,"ELEMENT_SET_NO":999,"REV_AT_EPOCH":14905,"BSTAR":0.00044221161,"MEAN_MOTION_DOT":0.00010204,"MEAN_MOTION_DDOT":0},{"OBJECT_NAME":"TRANSPORTER-15 OBJECT CZ","OBJECT_ID":"2025-276CZ","EPOCH":"2026-03-09T17:32:17.005632","MEAN_MOTION":15.20454432,"ECCENTRICITY":6.906e-5,"INCLINATION":97.4256,"RA_OF_ASC_NODE":144.1611,"ARG_OF_PERICENTER":127.7851,"MEAN_ANOMALY":232.3447,"EPHEMERIS_TYPE":0,"CLASSIFICATION_TYPE":"U","NORAD_CAT_ID":66761,"ELEMENT_SET_NO":999,"REV_AT_EPOCH":1533,"BSTAR":0.0005331226,"MEAN_MOTION_DOT":0.00011576,"MEAN_MOTION_DDOT":0}]
